[{"OBJECT_NAME":"SVYATOBOR 1 (RS60S)","OBJECT_ID":"2023-091X","EPOCH":"2026-03-09T23:06:11.081664","MEAN_MOTION":15.2482043,"ECCENTRICITY":0.00111996,"INCLINATION":97.5206,"RA_OF_ASC_NODE":132.3062,"ARG_OF_PERICENTER":84.4206,"MEAN_ANOMALY":275.8308,"EPHEMERIS_TYPE":0,"CLASSIFICATION_TYPE":"U","NORAD_CAT_ID":57187,"ELEMENT_SET_NO":999,"REV_AT_EPOCH":14918,"BSTAR":0.00046454276,"MEAN_MOTION_DOT":0.00011484,"MEAN_MOTION_DDOT":0},{"OBJECT_NAME":"NOAA 16 DEB","OBJECT_ID":"2000-055SB","EPOCH":"2026-02-27T15:08:14.620992","MEAN_MOTION":15.12270094,"ECCENTRICITY":0.00176542,"INCLINATION":98.8281,"RA_OF_ASC_NODE":211.5375,"ARG_OF_PERICENTER":315.8201,"MEAN_ANOMALY":44.1615,"EPHEMERIS_TYPE":0,"CLASSIFICATION_TYPE":"U","NORAD_CAT_ID":42383,"ELEMENT_SET_NO":999,"REV_AT_EPOCH":51816,"BSTAR":0.010800989,"MEAN_MOTION_DOT":0.00192328,"MEAN_MOTION_DDOT":0}]
